HAWK-C                  
1 43799U 18099AT  26068.67261865  .00009431  00000+0  35663-3 0  9994
2 43799  97.4027 122.6817 0040363 277.4052  82.2601 15.26407167398720
STARLINK-31749          
1 59631U 24082A   26068.21775102 -.00001582  00000+0 -47966-4 0  9990
2 59631  43.0051 142.1439 0001315 265.9053  94.1648 15.27576194104940
